UNKNOWN                 
1 85061U          26057.49607424  .00003577  00000+0  14132-1 0  9999
2 85061 102.3968  53.2403 0271365  41.5605 113.8298 12.77591789565456
UNKNOWN                 
1 85100U          26057.76610248  .00000333  00000+0  11232-3 0  9998
2 85100  74.0437  82.2267 0013878 289.6278 188.8995 14.40785160644296
UNKNOWN                 
1 85106U          26057.26552829  .00000600  00000+0  70206-3 0  9992
2 85106 100.0525 166.8395 0010420 178.8967 211.9837 13.73014065613434
UNKNOWN                 
1 85151U          26058.07192833  .00021448  00000+0  26660-2 0  9994
2 85151  98.4015 290.6904 0007194 268.3595  91.6792 14.82556657490824
UNKNOWN                 
1 85210U          26058.24862448  .00000243  00000+0  26989-3 0  9990
2 85210  99.8607 206.3446 0217441 118.9570   1.2976 13.71662796612644
UNKNOWN                 
1 85217U          26058.22590842  .00002488  00000+0  66180-3 0  9991
2 85217  98.0236 152.6258 0206011 256.9303 100.8819 14.37576494638846
UNKNOWN                 
1 85237U          26054.35491965  .00013478  00000+0  26977-2 0  9999
2 85237  65.5338  24.2147 0516167 354.4749   5.0755 14.01835433618525
UNKNOWN                 
1 85238U          26057.59754882  .00000037  00000+0  66009-4 0  9998
2 85238  99.0675 349.6321 0063440 356.5025 179.1574 13.88358512621361
UNKNOWN                 
1 85246U          26056.93251965  .00001357  00000+0  49205-3 0  9992
2 85246  97.9901  58.3882 0223976  82.2001 280.4542 14.21733756633756
UNKNOWN                 
1 85373U          26058.36958726  .00002197  00000+0  15034-2 0  9996
2 85373 100.4246 110.0719 0050459  38.0535  24.5981 14.00377137622856
UNKNOWN                 
1 85425U          26033.71181694  .00000000  00000+0  00000+0 0  9993
2 85425  51.2937 156.4139 6775828 239.1756 342.8295  3.07857636    06
UNKNOWN                 
1 87014U          26056.88123245  .00002428  00000+0  37233-2 0  9997
2 87014 100.4829  30.3380 0052349  53.2293 335.9472 13.52272530601077
